[
    {
        "Altitude(m)": 567684.409443237,
        "Argument of Periapsis(deg)": 0.013245982221427002,
        "Eccentricity": 0.0,
        "Inclination(deg)": 53.0,
        "Latitude(deg)": -42.818403455551234,
        "Longitude(deg)": 9.441393687967908,
        "Mean Anomaly(deg)": -57.99861426484486,
        "RAAN(deg)": 154.98028673705605,
        "Satellite Name": "Starlink Shell 1 699",
        "Satellite Number": 699,
        "Semi-Major Axis(m)": 6931778.249405717,
        "Time(s)": 380
    },
    {
        "Altitude(m)": 567534.8495184532,
        "Argument of Periapsis(deg)": 0.013594560700938237,
        "Eccentricity": 0.0,
        "Inclination(deg)": 53.0,
        "Latitude(deg)": -42.45633925787803,
        "Longitude(deg)": 10.091876817186312,
        "Mean Anomaly(deg)": -57.37178306128816,
        "RAAN(deg)": 154.97976796697856,
        "Satellite Name": "Starlink Shell 1 699",
        "Satellite Number": 699,
        "Semi-Major Axis(m)": 6931778.249405717,
        "Time(s)": 390
    },
    {
        "Altitude(m)": 567383.5136783588,
        "Argument of Periapsis(deg)": 0.013943139180449475,
        "Eccentricity": 0.0,
        "Inclination(deg)": 53.0,
        "Latitude(deg)": -42.090117854631615,
        "Longitude(deg)": 10.734411936567477,
        "Mean Anomaly(deg)": -56.744951857731394,
        "RAAN(deg)": 154.9792491969011,
        "Satellite Name": "Starlink Shell 1 699",
        "Satellite Number": 699,
        "Semi-Major Axis(m)": 6931778.249405717,
        "Time(s)": 400
    },
    {
        "Altitude(m)": 567230.4611790553,
        "Argument of Periapsis(deg)": 0.014291717659960712,
        "Eccentricity": 0.0,
        "Inclination(deg)": 53.0,
        "Latitude(deg)": -41.719837429397224,
        "Longitude(deg)": 11.36910399064922,
        "Mean Anomaly(deg)": -56.11812065417474,
        "RAAN(deg)": 154.9787304268236,
        "Satellite Name": "Starlink Shell 1 699",
        "Satellite Number": 699,
        "Semi-Major Axis(m)": 6931778.249405717,
        "Time(s)": 410
    },
    {
        "Altitude(m)": 567075.751895105,
        "Argument of Periapsis(deg)": 0.014640296139471948,
        "Eccentricity": 0.0,
        "Inclination(deg)": 53.0,
        "Latitude(deg)": -41.345594340922226,
        "Longitude(deg)": 11.996060092922955,
        "Mean Anomaly(deg)": -55.49128945061799,
        "RAAN(deg)": 154.97821165674617,
        "Satellite Name": "Starlink Shell 1 699",
        "Satellite Number": 699,
        "Semi-Major Axis(m)": 6931778.249405717,
        "Time(s)": 420
    },
    {
        "Altitude(m)": 566919.4462930722,
        "Argument of Periapsis(deg)": 0.014988874618983185,
        "Eccentricity": 0.0,
        "Inclination(deg)": 53.0,
        "Latitude(deg)": -40.96748311674195,
        "Longitude(deg)": 12.615389709147859,
        "Mean Anomaly(deg)": -54.8644582470612,
        "RAAN(deg)": 154.97769288666865,
        "Satellite Name": "Starlink Shell 1 699",
        "Satellite Number": 699,
        "Semi-Major Axis(m)": 6931778.249405717,
        "Time(s)": 430
    },
    {
        "Altitude(m)": 566761.6054048059,
        "Argument of Periapsis(deg)": 0.015337453098494424,
        "Eccentricity": 0.0,
        "Inclination(deg)": 53.0,
        "Latitude(deg)": -40.58559645120528,
        "Longitude(deg)": 13.22720485844811,
        "Mean Anomaly(deg)": -54.23762704350456,
        "RAAN(deg)": 154.97717411659121,
        "Satellite Name": "Starlink Shell 1 699",
        "Satellite Number": 699,
        "Semi-Major Axis(m)": 6931778.249405717,
        "Time(s)": 440
    },
    {
        "Altitude(m)": 566602.290800402,
        "Argument of Periapsis(deg)": 0.01568603157800566,
        "Eccentricity": 0.0,
        "Inclination(deg)": 53.0,
        "Latitude(deg)": -40.20002520755337,
        "Longitude(deg)": 13.83161881898589,
        "Mean Anomaly(deg)": -53.61079583994781,
        "RAAN(deg)": 154.97665534651372,
        "Satellite Name": "Starlink Shell 1 699",
        "Satellite Number": 699,
        "Semi-Major Axis(m)": 6931778.249405717,
        "Time(s)": 450
    },
    {
        "Altitude(m)": 566441.5645609839,
        "Argument of Periapsis(deg)": 0.0160346100575169,
        "Eccentricity": 0.0,
        "Inclination(deg)": 53.0,
        "Latitude(deg)": -39.810858423711906,
        "Longitude(deg)": 14.428746363558608,
        "Mean Anomaly(deg)": -52.98396463639113,
        "RAAN(deg)": 154.97613657643626,
        "Satellite Name": "Starlink Shell 1 699",
        "Satellite Number": 699,
        "Semi-Major Axis(m)": 6931778.249405717,
        "Time(s)": 460
    },
    {
        "Altitude(m)": 566279.4892511523,
        "Argument of Periapsis(deg)": 0.016383188537028134,
        "Eccentricity": 0.0,
        "Inclination(deg)": 53.0,
        "Latitude(deg)": -39.418183321478,
        "Longitude(deg)": 15.018704011800109,
        "Mean Anomaly(deg)": -52.35713343283439,
        "RAAN(deg)": 154.97561780635877,
        "Satellite Name": "Starlink Shell 1 699",
        "Satellite Number": 699,
        "Semi-Major Axis(m)": 6931778.249405717,
        "Time(s)": 470
    },
    {
        "Altitude(m)": 566116.1278912881,
        "Argument of Periapsis(deg)": 0.01673176701653937,
        "Eccentricity": 0.0,
        "Inclination(deg)": 53.0,
        "Latitude(deg)": -39.02208531880186,
        "Longitude(deg)": 15.601608785617136,
        "Mean Anomaly(deg)": -51.730302229277726,
        "RAAN(deg)": 154.9750990362813,
        "Satellite Name": "Starlink Shell 1 699",
        "Satellite Number": 699,
        "Semi-Major Axis(m)": 6931778.249405717,
        "Time(s)": 480
    },
    {
        "Altitude(m)": 565951.5439295772,
        "Argument of Periapsis(deg)": 0.017080345496050607,
        "Eccentricity": 0.0,
        "Inclination(deg)": 53.0,
        "Latitude(deg)": -38.62264804486709,
        "Longitude(deg)": 16.177578493082358,
        "Mean Anomaly(deg)": -51.10347102572095,
        "RAAN(deg)": 154.97458026620382,
        "Satellite Name": "Starlink Shell 1 699",
        "Satellite Number": 699,
        "Semi-Major Axis(m)": 6931778.249405717,
        "Time(s)": 490
    },
    {
        "Altitude(m)": 565785.8012138497,
        "Argument of Periapsis(deg)": 0.017428923975561842,
        "Eccentricity": 0.0,
        "Inclination(deg)": 53.0,
        "Latitude(deg)": -38.219953357700774,
        "Longitude(deg)": 16.74673202735262,
        "Mean Anomaly(deg)": -50.476639822164195,
        "RAAN(deg)": 154.97406149612638,
        "Satellite Name": "Starlink Shell 1 699",
        "Satellite Number": 699,
        "Semi-Major Axis(m)": 6931778.249405717,
        "Time(s)": 500
    },
    {
        "Altitude(m)": 565618.9639632212,
        "Argument of Periapsis(deg)": 0.01777750245507308,
        "Eccentricity": 0.0,
        "Inclination(deg)": 53.0,
        "Latitude(deg)": -37.814081364056975,
        "Longitude(deg)": 17.309188167168053,
        "Mean Anomaly(deg)": -49.849808618607554,
        "RAAN(deg)": 154.9735427260489,
        "Satellite Name": "Starlink Shell 1 699",
        "Satellite Number": 699,
        "Semi-Major Axis(m)": 6931778.249405717,
        "Time(s)": 510
    },
    {
        "Altitude(m)": 565451.0967395611,
        "Argument of Periapsis(deg)": 0.018126080934584315,
        "Eccentricity": 0.0,
        "Inclination(deg)": 53.0,
        "Latitude(deg)": -37.405110441326194,
        "Longitude(deg)": 17.865065904087015,
        "Mean Anomaly(deg)": -49.22297741505078,
        "RAAN(deg)": 154.9730239559714,
        "Satellite Name": "Starlink Shell 1 699",
        "Satellite Number": 699,
        "Semi-Major Axis(m)": 6931778.249405717,
        "Time(s)": 520
    },
    {
        "Altitude(m)": 565282.2644187675,
        "Argument of Periapsis(deg)": 0.018474659414095554,
        "Eccentricity": 0.0,
        "Inclination(deg)": 53.0,
        "Latitude(deg)": -36.99311726124706,
        "Longitude(deg)": 18.41448478298748,
        "Mean Anomaly(deg)": -48.596146211494116,
        "RAAN(deg)": 154.97250518589394,
        "Satellite Name": "Starlink Shell 1 699",
        "Satellite Number": 699,
        "Semi-Major Axis(m)": 6931778.249405717,
        "Time(s)": 530
    },
    {
        "Altitude(m)": 565112.5321619123,
        "Argument of Periapsis(deg)": 0.018823237893606792,
        "Eccentricity": 0.0,
        "Inclination(deg)": 53.0,
        "Latitude(deg)": -36.57817681520828,
        "Longitude(deg)": 18.957563742363668,
        "Mean Anomaly(deg)": -47.96931500793737,
        "RAAN(deg)": 154.97198641581647,
        "Satellite Name": "Starlink Shell 1 699",
        "Satellite Number": 699,
        "Semi-Major Axis(m)": 6931778.249405717,
        "Time(s)": 540
    },
    {
        "Altitude(m)": 564941.9653862284,
        "Argument of Periapsis(deg)": 0.019171816373118027,
        "Eccentricity": 0.0,
        "Inclination(deg)": 53.0,
        "Latitude(deg)": -36.16036244093915,
        "Longitude(deg)": 19.49442147956173,
        "Mean Anomaly(deg)": -47.34248380438069,
        "RAAN(deg)": 154.97146764573898,
        "Satellite Name": "Starlink Shell 1 699",
        "Satellite Number": 699,
        "Semi-Major Axis(m)": 6931778.249405717,
        "Time(s)": 550
    },
    {
        "Altitude(m)": 564770.6297359692,
        "Argument of Periapsis(deg)": 0.019520394852629266,
        "Eccentricity": 0.0,
        "Inclination(deg)": 53.0,
        "Latitude(deg)": -35.73974585040446,
        "Longitude(deg)": 20.02517682749075,
        "Mean Anomaly(deg)": -46.715652600823944,
        "RAAN(deg)": 154.97094887566152,
        "Satellite Name": "Starlink Shell 1 699",
        "Satellite Number": 699,
        "Semi-Major Axis(m)": 6931778.249405717,
        "Time(s)": 560
    }
]